{
  "type": "FeatureCollection",
  "features": [
    {
      "type": "Feature",
      "properties": {
        "norad_id": 66550,
        "name": "CZ-7A R/B",
        "group": "last-30-days",
        "lat": -9.296590443059012,
        "lon": -131.4795867859505,
        "alt_km": 12585.53347694228,
        "timestamp": "2025-12-16T03:53:25.815396+00:00",
        "meta_object_name": "CZ-7A R/B",
        "meta_object_id": "2025-277B",
        "meta_epoch": "2025-12-12T23:59:46.063680",
        "meta_mean_motion": 2.69999213,
        "meta_eccentricity": 0.70164962,
        "meta_inclination": 14.3833,
        "meta_ra_of_asc_node": 269.7494,
        "meta_arg_of_pericenter": 189.2871,
        "meta_mean_anomaly": 143.2042,
        "meta_ephemeris_type": 0,
        "meta_classification_type": "U",
        "meta_norad_cat_id": 66550,
        "meta_element_set_no": 999,
        "meta_rev_at_epoch": 35,
        "meta_bstar": 0.0022608485,
        "meta_mean_motion_dot": 0.01807848,
        "meta_mean_motion_ddot": -2.55676e-07,
        "tle_line1": "1 66550U 25277B   25346.99983870  .01807848 -25568-6  22608-2 0  9997",
        "tle_line2": "2 66550  14.3833 269.7494 7016496 189.2871 143.2042  2.69999213   350"
      },
      "geometry": {
        "type": "Point",
        "coordinates": [
          -131.4795867859505,
          -9.296590443059012
        ]
      }
    },
    {
      "type": "Feature",
      "properties": {
        "norad_id": 66554,
        "name": "GLOBAL-33",
        "group": "last-30-days",
        "lat": -32.856842055979094,
        "lon": -96.93444873418092,
        "alt_km": 476.17334933359234,
        "timestamp": "2025-12-16T03:53:25.815416+00:00",
        "meta_object_name": "GLOBAL-33",
        "meta_object_id": "2025-267A",
        "meta_epoch": "2025-12-14T05:29:19.257504",
        "meta_mean_motion": 15.31602676,
        "meta_eccentricity": 0.00047698,
        "meta_inclination": 42.0183,
        "meta_ra_of_asc_node": 48.3968,
        "meta_arg_of_pericenter": 75.153,
        "meta_mean_anomaly": 284.9835,
        "meta_ephemeris_type": 0,
        "meta_classification_type": "U",
        "meta_norad_cat_id": 66554,
        "meta_element_set_no": 999,
        "meta_rev_at_epoch": 363,
        "meta_bstar": 0.00088997621,
        "meta_mean_motion_dot": 0.00027606,
        "meta_mean_motion_ddot": 0,
        "tle_line1": "1 66554U 25267A   25348.22869511  .00027606  00000+0  88998-3 0  9999",
        "tle_line2": "2 66554  42.0183  48.3968 0004769  75.1530 284.9835 15.31602676  3639"
      },
      "geometry": {
        "type": "Point",
        "coordinates": [
          -96.93444873418092,
          -32.856842055979094
        ]
      }
    },
    {
      "type": "Feature",
      "properties": {
        "norad_id": 66555,
        "name": "ELECTRON KICK STAGE R/B",
        "group": "last-30-days",
        "lat": -28.223476323357225,
        "lon": 0.44649064846272224,
        "alt_km": 472.00736919752035,
        "timestamp": "2025-12-16T03:53:25.815427+00:00",
        "meta_object_name": "ELECTRON KICK STAGE R/B",
        "meta_object_id": "2025-267B",
        "meta_epoch": "2025-12-15T07:45:30.429504",
        "meta_mean_motion": 15.32947442,
        "meta_eccentricity": 0.00065615,
        "meta_inclination": 42.0199,
        "meta_ra_of_asc_node": 41.8917,
        "meta_arg_of_pericenter": 74.6649,
        "meta_mean_anomaly": 285.4913,
        "meta_ephemeris_type": 0,
        "meta_classification_type": "U",
        "meta_norad_cat_id": 66555,
        "meta_element_set_no": 999,
        "meta_rev_at_epoch": 380,
        "meta_bstar": 0.00055407947,
        "meta_mean_motion_dot": 0.00017817,
        "meta_mean_motion_ddot": 0,
        "tle_line1": "1 66555U 25267B   25349.32326886  .00017817  00000+0  55408-3 0  9998",
        "tle_line2": "2 66555  42.0199  41.8917 0006561  74.6649 285.4913 15.32947442  3802"
      },
      "geometry": {
        "type": "Point",
        "coordinates": [
          0.44649064846272224,
          -28.223476323357225
        ]
      }
    },
    {
      "type": "Feature",
      "properties": {
        "norad_id": 66557,
        "name": "STARLINK-35699",
        "group": "last-30-days",
        "lat": 22.59121072314268,
        "lon": -105.33864706154559,
        "alt_km": 411.97294862715535,
        "timestamp": "2025-12-16T03:53:25.815439+00:00",
        "meta_object_name": "STARLINK-35699",
        "meta_object_id": "2025-268A",
        "meta_epoch": "2025-12-15T08:42:53.144640",
        "meta_mean_motion": 15.50598676,
        "meta_eccentricity": 0.00016437,
        "meta_inclination": 42.9995,
        "meta_ra_of_asc_node": 105.857,
        "meta_arg_of_pericenter": 282.8479,
        "meta_mean_anomaly": 77.2198,
        "meta_ephemeris_type": 0,
        "meta_classification_type": "U",
        "meta_norad_cat_id": 66557,
        "meta_element_set_no": 999,
        "meta_rev_at_epoch": 503,
        "meta_bstar": 0.0011071964,
        "meta_mean_motion_dot": 0.00065201,
        "meta_mean_motion_ddot": 0,
        "tle_line1": "1 66557U 25268A   25349.36311510  .00065201  00000+0  11072-2 0  9991",
        "tle_line2": "2 66557  42.9995 105.8570 0001643 282.8479  77.2198 15.50598676  5033"
      },
      "geometry": {
        "type": "Point",
        "coordinates": [
          -105.33864706154559,
          22.59121072314268
        ]
      }
    },
    {
      "type": "Feature",
      "properties": {
        "norad_id": 66558,
        "name": "STARLINK-35695",
        "group": "last-30-days",
        "lat": 21.213983074910196,
        "lon": -103.44003315539383,
        "alt_km": 412.54707075098395,
        "timestamp": "2025-12-16T03:53:25.815452+00:00",
        "meta_object_name": "STARLINK-35695",
        "meta_object_id": "2025-268B",
        "meta_epoch": "2025-12-15T00:58:36.175872",
        "meta_mean_motion": 15.50607599,
        "meta_eccentricity": 0.00031216,
        "meta_inclination": 43.0001,
        "meta_ra_of_asc_node": 107.7387,
        "meta_arg_of_pericenter": 279.3865,
        "meta_mean_anomaly": 80.6642,
        "meta_ephemeris_type": 0,
        "meta_classification_type": "U",
        "meta_norad_cat_id": 66558,
        "meta_element_set_no": 999,
        "meta_rev_at_epoch": 498,
        "meta_bstar": 0.0016202575,
        "meta_mean_motion_dot": 0.00095992,
        "meta_mean_motion_ddot": 0,
        "tle_line1": "1 66558U 25268B   25349.04069648  .00095992  00000+0  16203-2 0  9990",
        "tle_line2": "2 66558  43.0001 107.7387 0003121 279.3865  80.6642 15.50607599  4984"
      },
      "geometry": {
        "type": "Point",
        "coordinates": [
          -103.44003315539383,
          21.213983074910196
        ]
      }
    },
    {
      "type": "Feature",
      "properties": {
        "norad_id": 66559,
        "name": "STARLINK-35419",
        "group": "last-30-days",
        "lat": 20.217290587573043,
        "lon": -102.10642808845877,
        "alt_km": 412.13685287445605,
        "timestamp": "2025-12-16T03:53:25.815463+00:00",
        "meta_object_name": "STARLINK-35419",
        "meta_object_id": "2025-268C",
        "meta_epoch": "2025-12-15T08:41:53.786976",
        "meta_mean_motion": 15.5061049,
        "meta_eccentricity": 0.00016529,
        "meta_inclination": 42.9976,
        "meta_ra_of_asc_node": 105.8537,
        "meta_arg_of_pericenter": 268.2529,
        "meta_mean_anomaly": 91.8142,
        "meta_ephemeris_type": 0,
        "meta_classification_type": "U",
        "meta_norad_cat_id": 66559,
        "meta_element_set_no": 999,
        "meta_rev_at_epoch": 503,
        "meta_bstar": 0.00084985172,
        "meta_mean_motion_dot": 0.0004989,
        "meta_mean_motion_ddot": 0,
        "tle_line1": "1 66559U 25268C   25349.36242809  .00049890  00000+0  84985-3 0  9997",
        "tle_line2": "2 66559  42.9976 105.8537 0001652 268.2529  91.8142 15.50610490  5031"
      },
      "geometry": {
        "type": "Point",
        "coordinates": [
          -102.10642808845877,
          20.217290587573043
        ]
      }
    },
    {
      "type": "Feature",
      "properties": {
        "norad_id": 66560,
        "name": "STARLINK-35411",
        "group": "last-30-days",
        "lat": 19.04186815155139,
        "lon": -100.5719860717576,
        "alt_km": 412.2809605168695,
        "timestamp": "2025-12-16T03:53:25.815473+00:00",
        "meta_object_name": "STARLINK-35411",
        "meta_object_id": "2025-268D",
        "meta_epoch": "2025-12-15T08:41:26.078496",
        "meta_mean_motion": 15.5062084,
        "meta_eccentricity": 0.00015273,
        "meta_inclination": 42.9983,
        "meta_ra_of_asc_node": 105.8502,
        "meta_arg_of_pericenter": 278.4443,
        "meta_mean_anomaly": 81.6244,
        "meta_ephemeris_type": 0,
        "meta_classification_type": "U",
        "meta_norad_cat_id": 66560,
        "meta_element_set_no": 999,
        "meta_rev_at_epoch": 503,
        "meta_bstar": 0.0011357028,
        "meta_mean_motion_dot": 0.00066957,
        "meta_mean_motion_ddot": 0,
        "tle_line1": "1 66560U 25268D   25349.36210739  .00066957  00000+0  11357-2 0  9991",
        "tle_line2": "2 66560  42.9983 105.8502 0001527 278.4443  81.6244 15.50620840  5032"
      },
      "geometry": {
        "type": "Point",
        "coordinates": [
          -100.5719860717576,
          19.04186815155139
        ]
      }
    }
  ]
}